NORAD_CAT_ID,OBJECT_NAME,OBJECT_TYPE,EPOCH,MEAN_MOTION,ECCENTRICITY,INCLINATION,RA_OF_ASC_NODE,ARG_OF_PERICENTER,MEAN_ANOMALY,BSTAR,MEAN_MOTION_DOT,MEAN_MOTION_DDOT,TLE_LINE0,TLE_LINE1,TLE_LINE2,SEMIMAJOR_AXIS,PERIOD,APOGEE,PERIGEE,DECAYED
55928.0,STARLINK-5930,PAYLOAD,2024-08-13 15:21:55,14.98306409,0.0002973,70.0017,309.1666,269.535,90.5468,-0.00063816,-7.694e-05,0.0,0 STARLINK-5930,1 55928U 23037Q   24226.64022734 -.00007694  00000-0 -63816-3 0  9993,2 55928  70.0017 309.1666 0002973 269.5350  90.5468 14.98306409 77659,6950.266,96.109,574.197,570.065,0.0
55928.0,STARLINK-5930,PAYLOAD,2024-08-13 23:22:36,14.98309472,0.0002956,70.0017,308.3255,271.4013,88.6807,-0.00041399,-5.026e-05,0.0,0 STARLINK-5930,1 55928U 23037Q   24226.97403057 -.00005026  00000-0 -41399-3 0  9999,2 55928  70.0017 308.3255 0002956 271.4013  88.6807 14.98309472 78045,6950.256,96.108,574.176,570.067,0.0
55928.0,STARLINK-5930,PAYLOAD,2024-08-14 12:11:42,14.98301744,0.0003204,70.0004,306.9796,269.6121,90.4671,-0.00054132,-6.541e-05,0.0,0 STARLINK-5930,1 55928U 23037Q   24227.50812514 -.00006541  00000-0 -54132-3 0  9993,2 55928  70.0004 306.9796 0003204 269.6121  90.4671 14.98301744 78124,6950.28,96.109,574.372,569.918,0.0
55928.0,STARLINK-5930,PAYLOAD,2024-08-14 13:47:50,14.98306259,0.0002984,70.0015,306.8084,273.9094,86.1724,-0.00036045,-4.388e-05,0.0,0 STARLINK-5930,1 55928U 23037Q   24227.57488430 -.00004388  00000-0 -36045-3 0  9996,2 55928  70.0015 306.8084 0002984 273.9094  86.1724 14.98306259 77795,6950.266,96.109,574.205,570.057,0.0
55928.0,STARLINK-5930,PAYLOAD,2024-08-14 15:23:57,14.98318851,0.0002927,70.0025,306.6423,270.8178,89.2646,-8.3447e-05,-1.088e-05,0.0,0 STARLINK-5930,1 55928U 23037Q   24227.64163887 -.00001088  00000-0 -83447-4 0  9993,2 55928  70.0025 306.6423 0002927 270.8178  89.2646 14.98318851 78145,6950.227,96.108,574.127,570.058,0.0
55928.0,STARLINK-5930,PAYLOAD,2024-08-15 12:13:42,14.98336065,0.0003162,70.001,304.4546,272.0153,88.0644,0.00079661,9.426e-05,0.0,0 STARLINK-5930,1 55928U 23037Q   24228.50951607  .00009426  00000-0  79661-3 0  9998,2 55928  70.0010 304.4546 0003162 272.0153  88.0644 14.98336065 77938,6950.174,96.107,574.237,569.841,0.0
55928.0,STARLINK-5930,PAYLOAD,2024-08-15 21:50:30,14.98342212,0.0003255,70.0008,303.4444,273.2354,86.8433,0.0007147,8.448e-05,0.0,0 STARLINK-5930,1 55928U 23037Q   24228.91007247  .00008448  00000-0  71470-3 0  9998,2 55928  70.0008 303.4444 0003255 273.2354  86.8433 14.98342212 77999,6950.155,96.106,574.282,569.758,0.0
55928.0,STARLINK-5930,PAYLOAD,2024-08-16 09:03:26,14.98338223,0.0003139,70.0018,302.2678,270.2107,89.8693,0.00057853,6.818e-05,0.0,0 STARLINK-5930,1 55928U 23037Q   24229.37739366  .00006818  00000-0  57853-3 0  9991,2 55928  70.0018 302.2678 0003139 270.2107  89.8693 14.98338223 78405,6950.167,96.106,574.214,569.851,0.0
55928.0,STARLINK-5930,PAYLOAD,2024-08-17 07:29:18,14.98344797,0.0002865,70.002,299.9115,266.2458,93.8373,-4.7045e-05,-6.54e-06,0.0,0 STARLINK-5930,1 55928U 23037Q   24230.31202104 -.00000654  00000-0 -47045-4 0  9999,2 55928  70.0020 299.9115 0002865 266.2458  93.8373 14.98344797 78206,6950.147,96.106,574.003,570.021,0.0
55928.0,STARLINK-5930,PAYLOAD,2024-08-18 04:19:03,14.98337495,0.0002978,69.9997,297.7216,267.1545,92.9273,4.3041e-05,4.21e-06,0.0,0 STARLINK-5930,1 55928U 23037Q   24231.17990136  .00000421  00000-0  43041-4 0  9995,2 55928  69.9997 297.7216 0002978 267.1545  92.9273 14.98337495 78673,6950.17,96.107,574.104,569.965,0.0
55928.0,STARLINK-5930,PAYLOAD,2024-08-18 05:55:11,14.98336633,0.0002987,69.9997,297.5531,267.441,92.6407,3.0479e-05,2.71e-06,0.0,0 STARLINK-5930,1 55928U 23037Q   24231.24666159  .00000271  00000-0  30479-4 0  9992,2 55928  69.9997 297.5531 0002987 267.4410  92.6407 14.98336633 78348,6950.172,96.107,574.113,569.961,0.0
55928.0,STARLINK-5930,PAYLOAD,2024-08-18 13:55:51,14.98335323,0.00028,69.9997,296.7116,258.1678,101.9167,4.4882e-05,4.43e-06,0.0,0 STARLINK-5930,1 55928U 23037Q   24231.58045947  .00000443  00000-0  44882-4 0  9999,2 55928  69.9997 296.7116 0002800 258.1678 101.9167 14.98335323 78392,6950.176,96.107,573.987,570.095,0.0
55928.0,STARLINK-5930,PAYLOAD,2024-08-19 04:21:04,14.98330352,0.0002926,69.9997,295.196,265.4297,94.6527,2.0309e-06,-6.9e-07,0.0,0 STARLINK-5930,1 55928U 23037Q   24232.18130186 -.00000069  00000-0  20309-5 0  9990,2 55928  69.9997 295.1960 0002926 265.4297  94.6527 14.98330352 78822,6950.192,96.107,574.09,570.023,0.0
55928.0,STARLINK-5930,PAYLOAD,2024-08-19 10:45:36,14.98329856,0.000294,69.9995,294.5233,267.5625,92.5198,1.2597e-05,5.7e-07,0.0,0 STARLINK-5930,1 55928U 23037Q   24232.44834177  .00000057  00000-0  12597-4 0  9995,2 55928  69.9995 294.5233 0002940 267.5625  92.5198 14.98329856 78525,6950.193,96.107,574.102,570.015,0.0
55928.0,STARLINK-5930,PAYLOAD,2024-08-20 04:23:05,14.98330916,0.0002907,69.9994,292.6715,267.5635,92.5191,5.1601e-05,5.23e-06,0.0,0 STARLINK-5930,1 55928U 23037Q   24233.18270008  .00000523  00000-0  51601-4 0  9991,2 55928  69.9994 292.6715 0002907 267.5635  92.5191 14.98330916 78973,6950.19,96.107,574.075,570.035,0.0
55928.0,STARLINK-5930,PAYLOAD,2024-08-20 12:23:41,14.98376693,0.0003024,69.9994,291.8296,264.8801,95.2013,0.00053649,6.322e-05,0.0,0 STARLINK-5930,1 55928U 23037Q   24233.51645503  .00006322  00000-0  53649-3 0  9990,2 55928  69.9994 291.8296 0003024 264.8801  95.2013 14.98376693 79026,6950.049,96.104,574.015,569.812,0.0
55928.0,STARLINK-5930,PAYLOAD,2024-08-20 13:59:49,14.98376916,0.0003024,69.9993,291.6613,264.7307,95.3507,0.00053027,6.247e-05,0.0,0 STARLINK-5930,1 55928U 23037Q   24233.58321325  .00006247  00000-0  53027-3 0  9996,2 55928  69.9993 291.6613 0003024 264.7307  95.3507 14.98376916 78695,6950.048,96.104,574.015,569.811,0.0
55928.0,STARLINK-5930,PAYLOAD,2024-08-21 04:25:04,14.98337847,0.0003086,69.9987,290.1464,267.9936,92.087,0.00011373,1.264e-05,0.0,0 STARLINK-5930,1 55928U 23037Q   24234.18408295  .00001264  00000-0  11373-3 0  9997,2 55928  69.9987 290.1464 0003086 267.9936  92.0870 14.98337847 79123,6950.169,96.106,574.178,569.889,0.0
55928.0,STARLINK-5930,PAYLOAD,2024-08-21 12:25:46,14.98318384,0.0003156,69.9988,289.3048,269.1235,90.9562,-0.00010779,-1.379e-05,0.0,0 STARLINK-5930,1 55928U 23037Q   24234.51790036 -.00001379  00000-0 -10779-3 0  9999,2 55928  69.9988 289.3048 0003156 269.1235  90.9562 14.98318384 79171,6950.229,96.108,574.287,569.9,0.0
55928.0,STARLINK-5930,PAYLOAD,2024-08-21 14:01:54,14.98318451,0.0003201,69.9986,289.1363,270.4968,89.5824,-0.00010707,-1.37e-05,0.0,0 STARLINK-5930,1 55928U 23037Q   24234.58466064 -.00001370  00000-0 -10707-3 0  9999,2 55928  69.9986 289.1363 0003201 270.4968  89.5824 14.98318451 78849,6950.229,96.108,574.318,569.869,0.0
55928.0,STARLINK-5930,PAYLOAD,2024-08-21 20:26:26,14.98317385,0.0003798,69.9968,288.4626,272.5599,87.5125,3.2166e-06,-5.5e-07,0.0,0 STARLINK-5930,1 55928U 23037Q   24234.85169939 -.00000055  00000-0  32166-5 0  9993,2 55928  69.9968 288.4626 0003798 272.5599  87.5125 14.98317385 78888,6950.232,96.108,574.737,569.457,0.0
